[{"OBJECT_NAME":"STARLINK-36130","OBJECT_ID":"2025-286G","EPOCH":"2026-03-09T01:51:23.905728","MEAN_MOTION":15.30197984,"ECCENTRICITY":6.66e-5,"INCLINATION":53.1622,"RA_OF_ASC_NODE":1.2527,"ARG_OF_PERICENTER":111.3589,"MEAN_ANOMALY":248.7483,"EPHEMERIS_TYPE":0,"CLASSIFICATION_TYPE":"U","NORAD_CAT_ID":66931,"ELEMENT_SET_NO":999,"REV_AT_EPOCH":1532,"BSTAR":0.0012635331,"MEAN_MOTION_DOT":0.00037248,"MEAN_MOTION_DDOT":0},{"OBJECT_NAME":"OBJECT BD","OBJECT_ID":"2025-313BD","EPOCH":"2026-03-09T15:06:44.992224","MEAN_MOTION":15.3000236,"ECCENTRICITY":0.00072867,"INCLINATION":97.397,"RA_OF_ASC_NODE":145.285,"ARG_OF_PERICENTER":333.4514,"MEAN_ANOMALY":26.6352,"EPHEMERIS_TYPE":0,"CLASSIFICATION_TYPE":"U","NORAD_CAT_ID":67299,"ELEMENT_SET_NO":999,"REV_AT_EPOCH":1083,"BSTAR":0.0027633805,"MEAN_MOTION_DOT":0.0008101,"MEAN_MOTION_DDOT":0}]
